[Satellite]
VERSION=1.1
NAME=MOLNIYA 1-88
NICKNAME=MOLNIYA 1-88
TLE1=1 23420U 94081A   20157.47951414 -.00000088  00000-0  00000-0 0  9990
TLE2=2 23420  64.1325   7.9127 6023064 294.1579  15.5614  3.34492157 88880
STATUS=0
